NUSAT-50 (NANCY ROMAN)  
1 60493U 24149AB  26068.80227738  .00012094  00000+0  42252-3 0  9994
2 60493  97.3817 150.7693 0002523 238.0469 122.0527 15.29713355 86930
STARLINK-36210          
1 67174U 25303M   26068.03496551  .00035797  00000+0  13035-2 0  9997
2 67174  43.0036 314.5291 0002237 258.7936 101.2664 15.27594454 12630
